1 45127U 13076Z   23281.61767022  .00004194  00000-0  24334-1 0  9998
2 45127  82.4481  38.3809 0114945 244.4383 114.4787 12.57465643169495
1 45127U 13076Z   23281.61767022  .00004194  00000-0  24334-1 0  9998
2 45127  82.4481  38.3809 0114945 244.4383 114.4787 12.57465643169495
1 45127U 13076Z   23283.60677173  .00004261  00000-0  24698-1 0  9994
2 45127  82.4474  37.1001 0116685 240.4673 118.4741 12.57482470169748
1 45127U 13076Z   23284.56153138  .00004266  00000-0  24716-1 0  9996
2 45127  82.4467  36.4851 0117449 238.5655 120.3907 12.57490837169867
1 45127U 13076Z   23284.56153138  .00004266  00000-0  24716-1 0  9996
2 45127  82.4467  36.4851 0117449 238.5655 120.3907 12.57490837169867
1 45127U 13076Z   23288.53963450  .00003495  00000-0  20204-1 0  9994
2 45127  82.4461  33.9241 0120659 230.9048 128.1261 12.57522239170363
1 45127U 13076Z   23288.53963450  .00003495  00000-0  20204-1 0  9994
2 45127  82.4461  33.9241 0120659 230.9048 128.1261 12.57522239170363
1 45127U 13076Z   23291.00601101  .00003664  00000-0  21160-1 0  9992
2 45127  82.4453  32.3358 0122462 226.3027 132.7865 12.57542008170677
1 45127U 13076Z   23291.00601101  .00003664  00000-0  21160-1 0  9992
2 45127  82.4453  32.3358 0122462 226.3027 132.7865 12.57542008170677
1 45127U 13076Z   23294.98396472  .00003805  00000-0  21936-1 0  9992
2 45127  82.4440  29.7727 0125139 219.1147 140.0845 12.57572218171172
1 45127U 13076Z   23295.54087444  .00003498  00000-0  20164-1 0  9991
2 45127  82.4443  29.4142 0125037 217.9117 141.3118 12.57575333171249
1 45127U 13076Z   23295.54087444  .00003498  00000-0  20164-1 0  9991
2 45127  82.4443  29.4142 0125037 217.9117 141.3118 12.57575333171249
1 45127U 13076Z   23298.96184282  .00002542  00000-0  14623-1 0  9990
2 45127  82.4450  27.2104 0126532 211.7062 147.6362 12.57594288171670
1 45127U 13076Z   23298.96184282  .00002542  00000-0  14623-1 0  9990
2 45127  82.4450  27.2104 0126532 211.7062 147.6362 12.57594288171670
1 45127U 13076Z   23301.50764267  .00003092  00000-0  17790-1 0  9991
2 45127  82.4451  25.5701 0127448 207.2263 152.2106 12.57612208171991
1 45127U 13076Z   23305.48538899  .00002978  00000-0  17115-1 0  9995
2 45127  82.4423  23.0046 0128405 200.4868 159.1044 12.57638922172499
1 45127U 13076Z   23305.48538899  .00002978  00000-0  17115-1 0  9995
2 45127  82.4423  23.0046 0128405 200.4868 159.1044 12.57638922172499
1 45127U 13076Z   23311.45185887  .00004930  00000-0  28352-1 0  9999
2 45127  82.4510  19.1693 0127995 189.4547 170.4131 12.57686409173243
1 45127U 13076Z   23311.45185887  .00004930  00000-0  28352-1 0  9999
2 45127  82.4510  19.1693 0127995 189.4547 170.4131 12.57686409173243
1 45127U 13076Z   23314.87255668  .00002185  00000-0  12538-1 0  9992
2 45127  82.4486  16.9628 0127278 182.9755 177.0590 12.57696071173676
1 45127U 13076Z   23314.87255668  .00002185  00000-0  12538-1 0  9992
2 45127  82.4486  16.9628 0127278 182.9755 177.0590 12.57696071173676
1 45127U 13076Z   23325.37307096  .00001089  00000-0  62321-2 0  9990
2 45127  82.4515  10.2019 0122147 163.7822 196.7230 12.57728121174999
1 45127U 13076Z   23325.37307096  .00001089  00000-0  62321-2 0  9990
2 45127  82.4515  10.2019 0122147 163.7822 196.7230 12.57728121174999
1 45127U 13076Z   23325.85036216  .00001399  00000-0  80198-2 0  9992
2 45127  82.4523   9.8955 0121916 162.6817 197.8486 12.57729611175054
1 45127U 13076Z   23327.44132430  .00001867  00000-0  10726-1 0  9993
2 45127  82.4527   8.8712 0120971 159.5648 201.0341 12.57737698175259
1 45127U 13076Z   23327.44132430  .00001867  00000-0  10726-1 0  9993
2 45127  82.4527   8.8712 0120971 159.5648 201.0341 12.57737698175259
1 45127U 13076Z   23331.81642698  .00002163  00000-0  12457-1 0  9994
2 45127  82.4539   6.0579 0117536 150.6132 210.1634 12.57756964175800
1 45127U 13076Z   23331.81642698  .00002163  00000-0  12457-1 0  9994
2 45127  82.4539   6.0579 0117536 150.6132 210.1634 12.57756964175800
1 45127U 13076Z   23344.78225305  .00001655  00000-0  95435-2 0  9999
2 45127  82.4536 357.7138 0108405 120.9072 240.2728 12.57806237177430
1 45127U 13076Z   23344.78225305  .00001655  00000-0  95435-2 0  9999
2 45127  82.4536 357.7138 0108405 120.9072 240.2728 12.57806237177430
